[{"OBJECT_NAME":"SES-2","OBJECT_ID":"2011-049A","EPOCH":"2026-03-04T04:27:38.801664","MEAN_MOTION":1.00272087,"ECCENTRICITY":0.000293,"INCLINATION":0.0187,"RA_OF_ASC_NODE":76.9513,"ARG_OF_PERICENTER":265.2421,"MEAN_ANOMALY":159.6384,"EPHEMERIS_TYPE":0,"CLASSIFICATION_TYPE":"U","NORAD_CAT_ID":37809,"ELEMENT_SET_NO":999,"REV_AT_EPOCH":5291,"BSTAR":0,"MEAN_MOTION_DOT":-2.08e-6,"MEAN_MOTION_DDOT":0},{"OBJECT_NAME":"QUETZSAT 1","OBJECT_ID":"2011-054A","EPOCH":"2026-03-04T04:19:38.619840","MEAN_MOTION":1.00271295,"ECCENTRICITY":0.0002753,"INCLINATION":0.0539,"RA_OF_ASC_NODE":289.0142,"ARG_OF_PERICENTER":69.7489,"MEAN_ANOMALY":151.0663,"EPHEMERIS_TYPE":0,"CLASSIFICATION_TYPE":"U","NORAD_CAT_ID":37826,"ELEMENT_SET_NO":999,"REV_AT_EPOCH":4882,"BSTAR":0,"MEAN_MOTION_DOT":-2.54e-6,"MEAN_MOTION_DDOT":0},{"OBJECT_NAME":"SES-4","OBJECT_ID":"2012-007A","EPOCH":"2026-03-04T03:39:47.030688","MEAN_MOTION":1.00269986,"ECCENTRICITY":0.0002464,"INCLINATION":0.035,"RA_OF_ASC_NODE":64.192,"ARG_OF_PERICENTER":289.3015,"MEAN_ANOMALY":201.3494,"EPHEMERIS_TYPE":0,"CLASSIFICATION_TYPE":"U","NORAD_CAT_ID":38087,"ELEMENT_SET_NO":999,"REV_AT_EPOCH":5117,"BSTAR":0,"MEAN_MOTION_DOT":-1.81e-6,"MEAN_MOTION_DDOT":0},{"OBJECT_NAME":"SES-5","OBJECT_ID":"2012-036A","EPOCH":"2026-03-04T03:47:31.288128","MEAN_MOTION":1.00271928,"ECCENTRICITY":0.0002021,"INCLINATION":0.0603,"RA_OF_ASC_NODE":310.79,"ARG_OF_PERICENTER":27.8584,"MEAN_ANOMALY":245.1093,"EPHEMERIS_TYPE":0,"CLASSIFICATION_TYPE":"U","NORAD_CAT_ID":38652,"ELEMENT_SET_NO":999,"REV_AT_EPOCH":4340,"BSTAR":0,"MEAN_MOTION_DOT":2.1e-7,"MEAN_MOTION_DDOT":0},{"OBJECT_NAME":"ASTRA 2F","OBJECT_ID":"2012-051A","EPOCH":"2026-03-03T19:20:37.987008","MEAN_MOTION":1.00273947,"ECCENTRICITY":0.00025768,"INCLINATION":0.0742,"RA_OF_ASC_NODE":258.5205,"ARG_OF_PERICENTER":16.5698,"MEAN_ANOMALY":204.8076,"EPHEMERIS_TYPE":0,"CLASSIFICATION_TYPE":"U","NORAD_CAT_ID":38778,"ELEMENT_SET_NO":999,"REV_AT_EPOCH":4008,"BSTAR":0,"MEAN_MOTION_DOT":1.36e-6,"MEAN_MOTION_DDOT":0},{"OBJECT_NAME":"SES-6","OBJECT_ID":"2013-026A","EPOCH":"2026-03-04T01:30:38.672640","MEAN_MOTION":1.00272191,"ECCENTRICITY":0.0001853,"INCLINATION":0.0668,"RA_OF_ASC_NODE":288.4881,"ARG_OF_PERICENTER":59.381,"MEAN_ANOMALY":156.0856,"EPHEMERIS_TYPE":0,"CLASSIFICATION_TYPE":"U","NORAD_CAT_ID":39172,"ELEMENT_SET_NO":999,"REV_AT_EPOCH":4667,"BSTAR":0,"MEAN_MOTION_DOT":-2.74e-6,"MEAN_MOTION_DDOT":0},{"OBJECT_NAME":"O3B FM5","OBJECT_ID":"2013-031A","EPOCH":"2026-03-04T02:20:32.968320","MEAN_MOTION":5.00116461,"ECCENTRICITY":0.0003337,"INCLINATION":0.0976,"RA_OF_ASC_NODE":14.1291,"ARG_OF_PERICENTER":319.9767,"MEAN_ANOMALY":25.8709,"EPHEMERIS_TYPE":0,"CLASSIFICATION_TYPE":"U","NORAD_CAT_ID":39188,"ELEMENT_SET_NO":999,"REV_AT_EPOCH":23177,"BSTAR":0,"MEAN_MOTION_DOT":-2.8e-7,"MEAN_MOTION_DDOT":0},{"OBJECT_NAME":"O3B FM4","OBJECT_ID":"2013-031B","EPOCH":"2026-03-03T19:36:26.511264","MEAN_MOTION":5.00115238,"ECCENTRICITY":0.0005037,"INCLINATION":0.0555,"RA_OF_ASC_NODE":345.1409,"ARG_OF_PERICENTER":5.4008,"MEAN_ANOMALY":9.4419,"EPHEMERIS_TYPE":0,"CLASSIFICATION_TYPE":"U","NORAD_CAT_ID":39189,"ELEMENT_SET_NO":999,"REV_AT_EPOCH":23177,"BSTAR":0,"MEAN_MOTION_DOT":-2.8e-7,"MEAN_MOTION_DDOT":0},{"OBJECT_NAME":"O3B FM2","OBJECT_ID":"2013-031C","EPOCH":"2026-03-04T01:58:52.315680","MEAN_MOTION":5.00115986,"ECCENTRICITY":0.0002839,"INCLINATION":0.0565,"RA_OF_ASC_NODE":339.0319,"ARG_OF_PERICENTER":0.926,"MEAN_ANOMALY":20.0242,"EPHEMERIS_TYPE":0,"CLASSIFICATION_TYPE":"U","NORAD_CAT_ID":39190,"ELEMENT_SET_NO":999,"REV_AT_EPOCH":23185,"BSTAR":0,"MEAN_MOTION_DOT":-2.8e-7,"MEAN_MOTION_DDOT":0},{"OBJECT_NAME":"O3B PFM","OBJECT_ID":"2013-031D","EPOCH":"2026-03-03T07:07:49.413216","MEAN_MOTION":5.00116017,"ECCENTRICITY":0.00051075,"INCLINATION":0.0664,"RA_OF_ASC_NODE":7.6623,"ARG_OF_PERICENTER":349.0732,"MEAN_ANOMALY":3.2541,"EPHEMERIS_TYPE":0,"CLASSIFICATION_TYPE":"U","NORAD_CAT_ID":39191,"ELEMENT_SET_NO":999,"REV_AT_EPOCH":23137,"BSTAR":0,"MEAN_MOTION_DOT":-2.8e-7,"MEAN_MOTION_DDOT":0},{"OBJECT_NAME":"ASTRA 2E","OBJECT_ID":"2013-056A","EPOCH":"2026-03-04T01:39:38.681280","MEAN_MOTION":1.00271905,"ECCENTRICITY":0.0002192,"INCLINATION":0.0692,"RA_OF_ASC_NODE":29.9587,"ARG_OF_PERICENTER":306.6148,"MEAN_ANOMALY":238.6253,"EPHEMERIS_TYPE":0,"CLASSIFICATION_TYPE":"U","NORAD_CAT_ID":39285,"ELEMENT_SET_NO":999,"REV_AT_EPOCH":4536,"BSTAR":0,"MEAN_MOTION_DOT":1.37e-6,"MEAN_MOTION_DDOT":0},{"OBJECT_NAME":"SES-8","OBJECT_ID":"2013-071A","EPOCH":"2026-03-04T03:59:38.679360","MEAN_MOTION":1.00273058,"ECCENTRICITY":0.000164,"INCLINATION":0.0587,"RA_OF_ASC_NODE":272.5817,"ARG_OF_PERICENTER":92.1261,"MEAN_ANOMALY":312.1062,"EPHEMERIS_TYPE":0,"CLASSIFICATION_TYPE":"U","NORAD_CAT_ID":39460,"ELEMENT_SET_NO":999,"REV_AT_EPOCH":4338,"BSTAR":0,"MEAN_MOTION_DOT":-2.82e-6,"MEAN_MOTION_DDOT":0},{"OBJECT_NAME":"ASTRA 5B","OBJECT_ID":"2014-011B","EPOCH":"2026-03-04T01:39:38.681280","MEAN_MOTION":1.00270762,"ECCENTRICITY":0.0004158,"INCLINATION":0.0915,"RA_OF_ASC_NODE":298.4827,"ARG_OF_PERICENTER":26.5677,"MEAN_ANOMALY":245.1554,"EPHEMERIS_TYPE":0,"CLASSIFICATION_TYPE":"U","NORAD_CAT_ID":39617,"ELEMENT_SET_NO":999,"REV_AT_EPOCH":4361,"BSTAR":0,"MEAN_MOTION_DOT":1.24e-6,"MEAN_MOTION_DDOT":0},{"OBJECT_NAME":"O3B FM3","OBJECT_ID":"2014-038A","EPOCH":"2026-03-03T23:07:17.340960","MEAN_MOTION":5.00115554,"ECCENTRICITY":5.45e-5,"INCLINATION":0.053,"RA_OF_ASC_NODE":353.4529,"ARG_OF_PERICENTER":51.572,"MEAN_ANOMALY":314.9728,"EPHEMERIS_TYPE":0,"CLASSIFICATION_TYPE":"U","NORAD_CAT_ID":40079,"ELEMENT_SET_NO":999,"REV_AT_EPOCH":20778,"BSTAR":0,"MEAN_MOTION_DOT":-2.8e-7,"MEAN_MOTION_DDOT":0},{"OBJECT_NAME":"O3B FM7","OBJECT_ID":"2014-038B","EPOCH":"2026-03-02T07:26:54.646080","MEAN_MOTION":5.00115622,"ECCENTRICITY":0.00044887,"INCLINATION":0.0588,"RA_OF_ASC_NODE":348.9474,"ARG_OF_PERICENTER":339.4059,"MEAN_ANOMALY":31.6123,"EPHEMERIS_TYPE":0,"CLASSIFICATION_TYPE":"U","NORAD_CAT_ID":40080,"ELEMENT_SET_NO":999,"REV_AT_EPOCH":21253,"BSTAR":0,"MEAN_MOTION_DOT":-2.9e-7,"MEAN_MOTION_DDOT":0},{"OBJECT_NAME":"O3B FM6","OBJECT_ID":"2014-038C","EPOCH":"2026-02-28T08:07:22.842912","MEAN_MOTION":5.00115665,"ECCENTRICITY":0.00026722,"INCLINATION":0.055,"RA_OF_ASC_NODE":351.2998,"ARG_OF_PERICENTER":345.9055,"MEAN_ANOMALY":22.7755,"EPHEMERIS_TYPE":0,"CLASSIFICATION_TYPE":"U","NORAD_CAT_ID":40081,"ELEMENT_SET_NO":999,"REV_AT_EPOCH":21238,"BSTAR":0,"MEAN_MOTION_DOT":-2.8e-7,"MEAN_MOTION_DDOT":0},{"OBJECT_NAME":"O3B FM8","OBJECT_ID":"2014-038D","EPOCH":"2026-03-03T14:09:38.280960","MEAN_MOTION":5.00115992,"ECCENTRICITY":0.0002659,"INCLINATION":0.0559,"RA_OF_ASC_NODE":350.7342,"ARG_OF_PERICENTER":353.8071,"MEAN_ANOMALY":15.4437,"EPHEMERIS_TYPE":0,"CLASSIFICATION_TYPE":"U","NORAD_CAT_ID":40082,"ELEMENT_SET_NO":999,"REV_AT_EPOCH":21266,"BSTAR":0,"MEAN_MOTION_DOT":-2.8e-7,"MEAN_MOTION_DDOT":0}]
