SES-2                   
1 37809U 11049A   26063.18586576 -.00000208  00000+0  00000+0 0  9994
2 37809   0.0187  76.9513 0002930 265.2421 159.6384  1.00272087 52912
QUETZSAT 1              
1 37826U 11054A   26063.18030810 -.00000254  00000+0  00000+0 0  9995
2 37826   0.0539 289.0142 0002753  69.7489 151.0663  1.00271295 48822
SES-4                   
1 38087U 12007A   26063.15262767 -.00000181  00000+0  00000+0 0  9998
2 38087   0.0350  64.1920 0002464 289.3015 201.3494  1.00269986 51170
SES-5                   
1 38652U 12036A   26063.15800102  .00000021  00000+0  00000+0 0  9991
2 38652   0.0603 310.7900 0002021  27.8584 245.1093  1.00271928 43409
ASTRA 2F                
1 38778U 12051A   26062.80599522  .00000136  00000+0  00000+0 0  9996
2 38778   0.0742 258.5205 0002576  16.5698 204.8076  1.00273947 40082
SES-6                   
1 39172U 13026A   26063.06294760 -.00000274  00000+0  00000+0 0  9997
2 39172   0.0668 288.4881 0001853  59.3810 156.0856  1.00272191 46673
O3B FM5                 
1 39188U 13031A   26063.09760380 -.00000028  00000+0  00000+0 0  9996
2 39188   0.0976  14.1291 0003337 319.9767  25.8709  5.00116461231774
O3B FM4                 
1 39189U 13031B   26062.81697351 -.00000028  00000+0  00000+0 0  9993
2 39189   0.0555 345.1409 0005037   5.4008   9.4419  5.00115238231777
O3B FM2                 
1 39190U 13031C   26063.08254995 -.00000028  00000+0  00000+0 0  9998
2 39190   0.0565 339.0319 0002839   0.9260  20.0242  5.00115986231851
O3B PFM                 
1 39191U 13031D   26062.29709969 -.00000028  00000+0  00000+0 0  9997
2 39191   0.0664   7.6623 0005107 349.0732   3.2541  5.00116017231378
ASTRA 2E                
1 39285U 13056A   26063.06919770  .00000137  00000+0  00000+0 0  9997
2 39285   0.0692  29.9587 0002192 306.6148 238.6253  1.00271905 45360
SES-8                   
1 39460U 13071A   26063.16641990 -.00000282  00000+0  00000+0 0  9998
2 39460   0.0587 272.5817 0001640  92.1261 312.1062  1.00273058 43387
ASTRA 5B                
1 39617U 14011B   26063.06919770  .00000124  00000+0  00000+0 0  9994
2 39617   0.0915 298.4827 0004158  26.5677 245.1554  1.00270762 43619
O3B FM3                 
1 40079U 14038A   26062.96339515 -.00000028  00000+0  00000+0 0  9992
2 40079   0.0530 353.4529 0000545  51.5720 314.9728  5.00115554207789
O3B FM7                 
1 40080U 14038B   26061.31035470 -.00000029  00000+0  00000+0 0  9996
2 40080   0.0588 348.9474 0004488 339.4059  31.6123  5.00115622212532
O3B FM6                 
1 40081U 14038C   26059.33845883 -.00000028  00000+0  00000+0 0  9992
2 40081   0.0550 351.2998 0002672 345.9055  22.7755  5.00115665212383
O3B FM8                 
1 40082U 14038D   26062.59002640 -.00000028  00000+0  00000+0 0  9991
2 40082   0.0559 350.7342 0002659 353.8071  15.4437  5.00115992212661
